[{"OBJECT_NAME":"ONEWEB-0092","OBJECT_ID":"2020-020P","EPOCH":"2025-11-17T12:34:36.332832","MEAN_MOTION":13.11414513,"ECCENTRICITY":0.0001406,"INCLINATION":87.8868,"RA_OF_ASC_NODE":63.2107,"ARG_OF_PERICENTER":100.9788,"MEAN_ANOMALY":259.1498,"EPHEMERIS_TYPE":0,"CLASSIFICATION_TYPE":"U","NORAD_CAT_ID":45437,"ELEMENT_SET_NO":999,"REV_AT_EPOCH":27504,"BSTAR":0.00045316,"MEAN_MOTION_DOT":1.73e-6,"MEAN_MOTION_DDOT":0},{"OBJECT_NAME":"ONEWEB-0085","OBJECT_ID":"2020-020Q","EPOCH":"2025-11-17T07:57:30.294432","MEAN_MOTION":13.11418563,"ECCENTRICITY":0.0001641,"INCLINATION":87.8863,"RA_OF_ASC_NODE":63.2589,"ARG_OF_PERICENTER":102.3561,"MEAN_ANOMALY":257.775,"EPHEMERIS_TYPE":0,"CLASSIFICATION_TYPE":"U","NORAD_CAT_ID":45438,"ELEMENT_SET_NO":999,"REV_AT_EPOCH":27490,"BSTAR":-0.00023232,"MEAN_MOTION_DOT":-7.0e-7,"MEAN_MOTION_DDOT":0},{"OBJECT_NAME":"ONEWEB-0096","OBJECT_ID":"2020-020R","EPOCH":"2025-11-17T07:59:56.598144","MEAN_MOTION":13.11417919,"ECCENTRICITY":0.0001704,"INCLINATION":87.8873,"RA_OF_ASC_NODE":63.2365,"ARG_OF_PERICENTER":107.8401,"MEAN_ANOMALY":252.2913,"EPHEMERIS_TYPE":0,"CLASSIFICATION_TYPE":"U","NORAD_CAT_ID":45439,"ELEMENT_SET_NO":999,"REV_AT_EPOCH":27489,"BSTAR":-0.00021588,"MEAN_MOTION_DOT":-6.4e-7,"MEAN_MOTION_DDOT":0},{"OBJECT_NAME":"ONEWEB-0037","OBJECT_ID":"2020-020S","EPOCH":"2025-11-17T07:31:51.181248","MEAN_MOTION":13.11416701,"ECCENTRICITY":0.0001546,"INCLINATION":87.8877,"RA_OF_ASC_NODE":63.2081,"ARG_OF_PERICENTER":101.9014,"MEAN_ANOMALY":258.2287,"EPHEMERIS_TYPE":0,"CLASSIFICATION_TYPE":"U","NORAD_CAT_ID":45440,"ELEMENT_SET_NO":999,"REV_AT_EPOCH":27492,"BSTAR":-0.0021949,"MEAN_MOTION_DOT":-7.65e-6,"MEAN_MOTION_DDOT":0},{"OBJECT_NAME":"ONEWEB-0042","OBJECT_ID":"2020-020T","EPOCH":"2025-11-17T11:24:49.483872","MEAN_MOTION":13.11417272,"ECCENTRICITY":0.000152,"INCLINATION":87.8868,"RA_OF_ASC_NODE":63.2083,"ARG_OF_PERICENTER":106.2279,"MEAN_ANOMALY":253.9016,"EPHEMERIS_TYPE":0,"CLASSIFICATION_TYPE":"U","NORAD_CAT_ID":45441,"ELEMENT_SET_NO":999,"REV_AT_EPOCH":27491,"BSTAR":-0.0011596,"MEAN_MOTION_DOT":-3.98e-6,"MEAN_MOTION_DDOT":0},{"OBJECT_NAME":"ONEWEB-0098","OBJECT_ID":"2020-020U","EPOCH":"2025-11-17T07:39:10.851840","MEAN_MOTION":13.11418176,"ECCENTRICITY":0.0001683,"INCLINATION":87.8871,"RA_OF_ASC_NODE":63.252,"ARG_OF_PERICENTER":100.5483,"MEAN_ANOMALY":259.5835,"EPHEMERIS_TYPE":0,"CLASSIFICATION_TYPE":"U","NORAD_CAT_ID":45442,"ELEMENT_SET_NO":999,"REV_AT_EPOCH":27487,"BSTAR":-0.0013585,"MEAN_MOTION_DOT":-4.69e-6,"MEAN_MOTION_DDOT":0},{"OBJECT_NAME":"ONEWEB-0055","OBJECT_ID":"2020-020V","EPOCH":"2025-11-17T07:14:45.791232","MEAN_MOTION":13.1141292,"ECCENTRICITY":0.00017432,"INCLINATION":87.8871,"RA_OF_ASC_NODE":63.2558,"ARG_OF_PERICENTER":102.8845,"MEAN_ANOMALY":257.2478,"EPHEMERIS_TYPE":0,"CLASSIFICATION_TYPE":"U","NORAD_CAT_ID":45443,"ELEMENT_SET_NO":999,"REV_AT_EPOCH":27484,"BSTAR":-0.00043884761,"MEAN_MOTION_DOT":-1.43e-6,"MEAN_MOTION_DDOT":0},{"OBJECT_NAME":"ONEWEB-0093","OBJECT_ID":"2020-020W","EPOCH":"2025-11-17T08:29:27.138912","MEAN_MOTION":13.11416278,"ECCENTRICITY":0.0001574,"INCLINATION":87.887,"RA_OF_ASC_NODE":63.2316,"ARG_OF_PERICENTER":119.2999,"MEAN_ANOMALY":240.8287,"EPHEMERIS_TYPE":0,"CLASSIFICATION_TYPE":"U","NORAD_CAT_ID":45444,"ELEMENT_SET_NO":999,"REV_AT_EPOCH":27491,"BSTAR":0.0014295,"MEAN_MOTION_DOT":5.19e-6,"MEAN_MOTION_DDOT":0},{"OBJECT_NAME":"ONEWEB-0029","OBJECT_ID":"2020-020X","EPOCH":"2025-11-17T12:32:10.339296","MEAN_MOTION":13.1141614,"ECCENTRICITY":0.0001687,"INCLINATION":87.8872,"RA_OF_ASC_NODE":63.2108,"ARG_OF_PERICENTER":107.9976,"MEAN_ANOMALY":252.1336,"EPHEMERIS_TYPE":0,"CLASSIFICATION_TYPE":"U","NORAD_CAT_ID":45445,"ELEMENT_SET_NO":999,"REV_AT_EPOCH":27491,"BSTAR":0.00071609,"MEAN_MOTION_DOT":2.66e-6,"MEAN_MOTION_DDOT":0},{"OBJECT_NAME":"ONEWEB-0068","OBJECT_ID":"2020-020Y","EPOCH":"2025-11-17T08:29:03.378048","MEAN_MOTION":13.11415282,"ECCENTRICITY":0.0001682,"INCLINATION":87.8873,"RA_OF_ASC_NODE":63.2333,"ARG_OF_PERICENTER":108.4534,"MEAN_ANOMALY":251.6777,"EPHEMERIS_TYPE":0,"CLASSIFICATION_TYPE":"U","NORAD_CAT_ID":45446,"ELEMENT_SET_NO":999,"REV_AT_EPOCH":27483,"BSTAR":0.0012375,"MEAN_MOTION_DOT":4.51e-6,"MEAN_MOTION_DDOT":0},{"OBJECT_NAME":"ONEWEB-0046","OBJECT_ID":"2020-020Z","EPOCH":"2025-11-17T08:17:02.397696","MEAN_MOTION":13.11417153,"ECCENTRICITY":0.0001458,"INCLINATION":87.887,"RA_OF_ASC_NODE":63.243,"ARG_OF_PERICENTER":109.2291,"MEAN_ANOMALY":250.8995,"EPHEMERIS_TYPE":0,"CLASSIFICATION_TYPE":"U","NORAD_CAT_ID":45447,"ELEMENT_SET_NO":999,"REV_AT_EPOCH":27484,"BSTAR":0.0012652,"MEAN_MOTION_DOT":4.61e-6,"MEAN_MOTION_DDOT":0},{"OBJECT_NAME":"ONEWEB-0063","OBJECT_ID":"2020-020AA","EPOCH":"2025-11-17T07:08:40.224192","MEAN_MOTION":13.11414343,"ECCENTRICITY":0.00014054,"INCLINATION":87.8872,"RA_OF_ASC_NODE":63.2507,"ARG_OF_PERICENTER":102.25,"MEAN_ANOMALY":257.8785,"EPHEMERIS_TYPE":0,"CLASSIFICATION_TYPE":"U","NORAD_CAT_ID":45448,"ELEMENT_SET_NO":999,"REV_AT_EPOCH":27492,"BSTAR":-4.4260228e-5,"MEAN_MOTION_DOT":-3.0e-8,"MEAN_MOTION_DDOT":0},{"OBJECT_NAME":"ONEWEB-0019","OBJECT_ID":"2020-020AB","EPOCH":"2025-11-17T08:20:41.459712","MEAN_MOTION":13.11420178,"ECCENTRICITY":0.000172,"INCLINATION":87.8858,"RA_OF_ASC_NODE":63.2529,"ARG_OF_PERICENTER":102.6391,"MEAN_ANOMALY":257.4929,"EPHEMERIS_TYPE":0,"CLASSIFICATION_TYPE":"U","NORAD_CAT_ID":45449,"ELEMENT_SET_NO":999,"REV_AT_EPOCH":27477,"BSTAR":0.0012011,"MEAN_MOTION_DOT":4.38e-6,"MEAN_MOTION_DDOT":0},{"OBJECT_NAME":"ONEWEB-0094","OBJECT_ID":"2020-020AC","EPOCH":"2025-11-17T11:49:45.623424","MEAN_MOTION":13.17652095,"ECCENTRICITY":0.0001783,"INCLINATION":87.9141,"RA_OF_ASC_NODE":47.9287,"ARG_OF_PERICENTER":102.6826,"MEAN_ANOMALY":257.4505,"EPHEMERIS_TYPE":0,"CLASSIFICATION_TYPE":"U","NORAD_CAT_ID":45450,"ELEMENT_SET_NO":999,"REV_AT_EPOCH":27843,"BSTAR":4.3596e-5,"MEAN_MOTION_DOT":3.0e-7,"MEAN_MOTION_DDOT":0},{"OBJECT_NAME":"ONEWEB-0087","OBJECT_ID":"2020-020AD","EPOCH":"2025-11-17T07:23:06.222624","MEAN_MOTION":13.11415104,"ECCENTRICITY":0.00018229,"INCLINATION":87.888,"RA_OF_ASC_NODE":63.2041,"ARG_OF_PERICENTER":112.4215,"MEAN_ANOMALY":247.7107,"EPHEMERIS_TYPE":0,"CLASSIFICATION_TYPE":"U","NORAD_CAT_ID":45451,"ELEMENT_SET_NO":999,"REV_AT_EPOCH":27481,"BSTAR":-0.0010125179,"MEAN_MOTION_DOT":-3.46e-6,"MEAN_MOTION_DDOT":0},{"OBJECT_NAME":"ONEWEB-0082","OBJECT_ID":"2020-020AE","EPOCH":"2025-11-17T07:18:25.260192","MEAN_MOTION":13.11414106,"ECCENTRICITY":0.00017857,"INCLINATION":87.8888,"RA_OF_ASC_NODE":63.2309,"ARG_OF_PERICENTER":110.7294,"MEAN_ANOMALY":249.4026,"EPHEMERIS_TYPE":0,"CLASSIFICATION_TYPE":"U","NORAD_CAT_ID":45452,"ELEMENT_SET_NO":999,"REV_AT_EPOCH":27490,"BSTAR":-0.00036626453,"MEAN_MOTION_DOT":-1.17e-6,"MEAN_MOTION_DDOT":0},{"OBJECT_NAME":"ONEWEB-0050","OBJECT_ID":"2020-020AF","EPOCH":"2025-11-17T09:04:39.436608","MEAN_MOTION":14.89360193,"ECCENTRICITY":0.0004813,"INCLINATION":88.9211,"RA_OF_ASC_NODE":262.1051,"ARG_OF_PERICENTER":50.5006,"MEAN_ANOMALY":309.6647,"EPHEMERIS_TYPE":0,"CLASSIFICATION_TYPE":"U","NORAD_CAT_ID":45453,"ELEMENT_SET_NO":999,"REV_AT_EPOCH":30884,"BSTAR":0.00060655,"MEAN_MOTION_DOT":5.776e-5,"MEAN_MOTION_DDOT":0}]
