ONEWEB-0092             
1 45437U 20020P   25321.52403163  .00000173  00000+0  45316-3 0  9996
2 45437  87.8868  63.2107 0001406 100.9788 259.1498 13.11414513275043
ONEWEB-0085             
1 45438U 20020Q   25321.33160063 -.00000070  00000+0 -23232-3 0  9996
2 45438  87.8863  63.2589 0001641 102.3561 257.7750 13.11418563274907
ONEWEB-0096             
1 45439U 20020R   25321.33329396 -.00000064  00000+0 -21588-3 0  9998
2 45439  87.8873  63.2365 0001704 107.8401 252.2913 13.11417919274897
ONEWEB-0037             
1 45440U 20020S   25321.31378682 -.00000765  00000+0 -21949-2 0  9998
2 45440  87.8877  63.2081 0001546 101.9014 258.2287 13.11416701274929
ONEWEB-0042             
1 45441U 20020T   25321.47557273 -.00000398  00000+0 -11596-2 0  9990
2 45441  87.8868  63.2083 0001520 106.2279 253.9016 13.11417272274910
ONEWEB-0098             
1 45442U 20020U   25321.31887560 -.00000469  00000+0 -13585-2 0  9998
2 45442  87.8871  63.2520 0001683 100.5483 259.5835 13.11418176274875
ONEWEB-0055             
1 45443U 20020V   25321.30191888 -.00000143  00000+0 -43885-3 0  9995
2 45443  87.8871  63.2558 0001743 102.8845 257.2478 13.11412920274847
ONEWEB-0093             
1 45444U 20020W   25321.35378633  .00000519  00000+0  14295-2 0  9993
2 45444  87.8870  63.2316 0001574 119.2999 240.8287 13.11416278274917
ONEWEB-0029             
1 45445U 20020X   25321.52234189  .00000266  00000+0  71609-3 0  9992
2 45445  87.8872  63.2108 0001687 107.9976 252.1336 13.11416140274912
ONEWEB-0068             
1 45446U 20020Y   25321.35351132  .00000451  00000+0  12375-2 0  9992
2 45446  87.8873  63.2333 0001682 108.4534 251.6777 13.11415282274835
ONEWEB-0046             
1 45447U 20020Z   25321.34516664  .00000461  00000+0  12652-2 0  9994
2 45447  87.8870  63.2430 0001458 109.2291 250.8995 13.11417153274844
ONEWEB-0063             
1 45448U 20020AA  25321.29768778 -.00000003  00000+0 -44260-4 0  9990
2 45448  87.8872  63.2507 0001405 102.2500 257.8785 13.11414343274921
ONEWEB-0019             
1 45449U 20020AB  25321.34770208  .00000438  00000+0  12011-2 0  9995
2 45449  87.8858  63.2529 0001720 102.6391 257.4929 13.11420178274774
ONEWEB-0094             
1 45450U 20020AC  25321.49288916  .00000030  00000+0  43596-4 0  9995
2 45450  87.9141  47.9287 0001783 102.6826 257.4505 13.17652095278432
ONEWEB-0087             
1 45451U 20020AD  25321.30771091 -.00000346  00000+0 -10125-2 0  9999
2 45451  87.8880  63.2041 0001822 112.4215 247.7107 13.11415104274816
ONEWEB-0082             
1 45452U 20020AE  25321.30445903 -.00000117  00000+0 -36626-3 0  9991
2 45452  87.8888  63.2309 0001785 110.7294 249.4026 13.11414106274908
ONEWEB-0050             
1 45453U 20020AF  25321.37823422  .00005776  00000+0  60655-3 0  9998
2 45453  88.9211 262.1051 0004813  50.5006 309.6647 14.89360193308843
